{
    "links": {
        "self": "http://www.neowsapp.com/rest/v1/neo/3661459?api_key=iIulBulltgU6a56xZRHN4H3l9WmuAYTsLGpBGhQ2"
    },
    "id": "3661459",
    "neo_reference_id": "3661459",
    "name": "(2014 CB13)",
    "designation": "2014 CB13",
    "nasa_jpl_url": "http://ssd.jpl.nasa.gov/sbdb.cgi?sstr=3661459",
    "absolute_magnitude_h": 26.4,
    "estimated_diameter": {
        "kilometers": {
            "estimated_diameter_min": 0.0139493823,
            "estimated_diameter_max": 0.0311917671
        },
        "meters": {
            "estimated_diameter_min": 13.9493822934,
            "estimated_diameter_max": 31.1917670523
        },
        "miles": {
            "estimated_diameter_min": 0.0086677416,
            "estimated_diameter_max": 0.0193816595
        },
        "feet": {
            "estimated_diameter_min": 45.7656914036,
            "estimated_diameter_max": 102.3351970157
        }
    },
    "is_potentially_hazardous_asteroid": false,
    "close_approach_data": [
        {
            "close_approach_date": "2014-02-15",
            "close_approach_date_full": "2014-Feb-15 07:13",
            "epoch_date_close_approach": 1392448380000,
            "relative_velocity": {
                "kilometers_per_second": "5.6266690879",
                "kilometers_per_hour": "20256.0087163055",
                "miles_per_hour": "12586.29608264"
            },
            "miss_distance": {
                "astronomical": "0.0525228694",
                "lunar": "20.4313961966",
                "kilometers": "7857309.388528178",
                "miles": "4882305.6585097364"
            },
            "orbiting_body": "Earth"
        },
        {
            "close_approach_date": "2019-01-10",
            "close_approach_date_full": "2019-Jan-10 10:03",
            "epoch_date_close_approach": 1547114580000,
            "relative_velocity": {
                "kilometers_per_second": "17.4370700552",
                "kilometers_per_hour": "62773.4521986509",
                "miles_per_hour": "39004.9820064339"
            },
            "miss_distance": {
                "astronomical": "0.4152769435",
                "lunar": "161.5427310215",
                "kilometers": "62124546.207710345",
                "miles": "38602402.996258961"
            },
            "orbiting_body": "Earth"
        }
    ],
    "orbital_data": {
        "orbit_id": "5",
        "orbit_determination_date": "2019-07-11 06:01:27",
        "first_observation_date": "2014-02-09",
        "last_observation_date": "2014-02-10",
        "data_arc_in_days": 1,
        "observations_used": 23,
        "orbit_uncertainty": "7",
        "minimum_orbit_intersection": ".0390978",
        "jupiter_tisserand_invariant": "3.915",
        "epoch_osculation": "2459000.5",
        "eccentricity": ".4363485797814193",
        "semi_major_axis": "1.826294356280993",
        "inclination": ".4300136241047212",
        "ascending_node_longitude": "332.7850731476512",
        "orbital_period": "901.4768789333857",
        "perihelion_distance": "1.02939340765496",
        "perihelion_argument": "183.5070300230221",
        "aphelion_distance": "2.623195304907026",
        "perihelion_time": "2459416.794091098169",
        "mean_anomaly": "193.7551674396131",
        "mean_motion": ".399344684719975",
        "equinox": "J2000",
        "orbit_class": {
            "orbit_class_type": "AMO",
            "orbit_class_description": "Near-Earth asteroid orbits similar to that of 1221 Amor",
            "orbit_class_range": "1.017 AU < q (perihelion) < 1.3 AU"
        }
    },
    "is_sentry_object": false
}